NORAD_CAT_ID,OBJECT_NAME,OBJECT_TYPE,EPOCH,MEAN_MOTION,ECCENTRICITY,INCLINATION,RA_OF_ASC_NODE,ARG_OF_PERICENTER,MEAN_ANOMALY,BSTAR,MEAN_MOTION_DOT,MEAN_MOTION_DDOT,TLE_LINE0,TLE_LINE1,TLE_LINE2,SEMIMAJOR_AXIS,PERIOD,APOGEE,PERIGEE,DECAYED
51735.0,STARLINK-3517,PAYLOAD,2024-02-12 14:17:11,15.08867345,0.0001674,53.2173,113.3563,110.7106,249.4066,0.0002599,3.854e-05,0.0,0 STARLINK-3517,1 51735U 22016X   24043.59527696  .00003854  00000-0  25990-3 0  9992,2 51735  53.2173 113.3563 0001674 110.7106 249.4066 15.08867345109424,6917.797,95.436,540.82,538.504,0.0
51735.0,STARLINK-3517,PAYLOAD,2024-02-13 10:57:16,15.08829606,0.0001301,53.2182,109.4921,91.6481,268.466,-0.00017432,-3.06e-05,0.0,0 STARLINK-3517,1 51735U 22016X   24044.45643633 -.00003060  00000-0 -17432-3 0  9991,2 51735  53.2182 109.4921 0001301  91.6481 268.4660 15.08829606110665,6917.912,95.438,540.677,538.877,0.0
51735.0,STARLINK-3517,PAYLOAD,2024-02-13 14:08:02,15.08831766,0.0001288,53.2179,108.8948,110.6659,249.4471,-0.00015297,-2.721e-05,0.0,0 STARLINK-3517,1 51735U 22016X   24044.58891414 -.00002721  00000-0 -15297-3 0  9997,2 51735  53.2179 108.8948 0001288 110.6659 249.4471 15.08831766109573,6917.906,95.438,540.662,538.88,0.0
51735.0,STARLINK-3517,PAYLOAD,2024-02-13 18:54:11,15.08840106,0.0001348,53.2179,108.0041,78.3112,281.8031,-6.1573e-05,-1.268e-05,0.0,0 STARLINK-3517,1 51735U 22016X   24044.78762893 -.00001268  00000-0 -61573-4 0  9991,2 51735  53.2179 108.0041 0001348  78.3112 281.8031 15.08840106110718,6917.88,95.438,540.678,538.813,0.0
51735.0,STARLINK-3517,PAYLOAD,2024-02-14 10:48:01,15.08847144,0.0001256,53.216,105.0326,81.8395,278.274,0.00025949,3.845e-05,0.0,0 STARLINK-3517,1 51735U 22016X   24045.45002173  .00003845  00000-0  25949-3 0  9991,2 51735  53.2160 105.0326 0001256  81.8395 278.2740 15.08847144110818,6917.859,95.437,540.592,538.855,0.0
51735.0,STARLINK-3517,PAYLOAD,2024-02-14 13:58:48,15.08854485,0.0001237,53.2166,104.4364,106.2696,253.8433,0.00054437,8.39e-05,0.0,0 STARLINK-3517,1 51735U 22016X   24045.58250232  .00008390  00000-0  54437-3 0  9990,2 51735  53.2166 104.4364 0001237 106.2696 253.8433 15.08854485109726,6917.836,95.437,540.557,538.845,0.0
51735.0,STARLINK-3517,PAYLOAD,2024-02-14 20:20:21,15.08837985,0.0001402,53.2171,103.2465,80.8026,279.3125,0.00052471,8.072e-05,0.0,0 STARLINK-3517,1 51735U 22016X   24045.84747124  .00008072  00000-0  52471-3 0  9993,2 51735  53.2171 103.2465 0001402  80.8026 279.3125 15.08837985109760,6917.887,95.438,540.721,538.782,0.0
51735.0,STARLINK-3517,PAYLOAD,2024-02-15 04:17:17,15.08838745,0.0001422,53.2167,101.7598,80.8092,279.3061,0.00034189,5.157e-05,0.0,0 STARLINK-3517,1 51735U 22016X   24046.17867433  .00005157  00000-0  34189-3 0  9993,2 51735  53.2167 101.7598 0001422  80.8092 279.3061 15.08838745110924,6917.884,95.438,540.733,538.766,0.0
51735.0,STARLINK-3517,PAYLOAD,2024-02-15 10:38:49,15.08844289,0.0001338,53.2171,100.5714,100.175,259.9393,0.00043013,6.565e-05,0.0,0 STARLINK-3517,1 51735U 22016X   24046.44363174  .00006565  00000-0  43013-3 0  9996,2 51735  53.2171 100.5714 0001338 100.1750 259.9393 15.08844289109851,6917.867,95.437,540.658,538.807,0.0
51735.0,STARLINK-3517,PAYLOAD,2024-02-15 20:11:08,15.08847382,0.0001324,53.2166,98.7877,96.9441,263.1702,0.00074962,0.00011665,0.0,0 STARLINK-3517,1 51735U 22016X   24046.84107242  .00011665  00000-0  74962-3 0  9996,2 51735  53.2166  98.7877 0001324  96.9441 263.1702 15.08847382109912,6917.858,95.437,540.639,538.807,0.0
51735.0,STARLINK-3517,PAYLOAD,2024-02-16 10:29:36,15.08849809,0.0001443,53.2171,96.113,104.1174,255.9979,0.00059121,9.136e-05,0.0,0 STARLINK-3517,1 51735U 22016X   24047.43723240  .00009136  00000-0  59121-3 0  9994,2 51735  53.2171  96.1130 0001443 104.1174 255.9979 15.08849809111115,6917.85,95.437,540.714,538.717,0.0
51735.0,STARLINK-3517,PAYLOAD,2024-02-17 02:23:28,15.08841516,0.0001589,53.2174,93.1418,108.2277,251.8888,0.00014032,1.946e-05,0.0,0 STARLINK-3517,1 51735U 22016X   24048.09963338  .00001946  00000-0  14032-3 0  9994,2 51735  53.2174  93.1418 0001589 108.2277 251.8888 15.08841516111216,6917.876,95.437,540.84,538.642,0.0
51735.0,STARLINK-3517,PAYLOAD,2024-02-17 10:20:24,15.08835336,0.0001269,53.2162,91.6521,97.3464,262.7672,4.0132e-05,3.51e-06,0.0,0 STARLINK-3517,1 51735U 22016X   24048.43083911  .00000351  00000-0  40132-4 0  9992,2 51735  53.2162  91.6521 0001269  97.3464 262.7672 15.08835336111262,6917.895,95.438,540.638,538.882,0.0
51735.0,STARLINK-3517,PAYLOAD,2024-02-17 19:52:43,15.08838723,0.0001293,53.2164,89.866,83.1892,276.9247,6.3749e-05,7.27e-06,0.0,0 STARLINK-3517,1 51735U 22016X   24048.82827886  .00000727  00000-0  63749-4 0  9998,2 51735  53.2164  89.8660 0001293  83.1892 276.9247 15.08838723110214,6917.884,95.438,540.644,538.855,0.0
51735.0,STARLINK-3517,PAYLOAD,2024-02-18 10:11:11,15.08850836,0.0001528,53.2169,87.1898,82.6289,277.4877,0.00020368,2.956e-05,0.0,0 STARLINK-3517,1 51735U 22016X   24049.42443509  .00002956  00000-0  20368-3 0  9996,2 51735  53.2169  87.1898 0001528  82.6289 277.4877 15.08850836111415,6917.847,95.437,540.769,538.655,0.0
51735.0,STARLINK-3517,PAYLOAD,2024-02-18 19:43:29,15.08852099,0.0001586,53.2171,85.4062,83.1434,276.9738,0.00037156,5.632e-05,0.0,0 STARLINK-3517,1 51735U 22016X   24049.82187474  .00005632  00000-0  37156-3 0  9993,2 51735  53.2171  85.4062 0001586  83.1434 276.9738 15.08852099110360,6917.843,95.437,540.806,538.611,0.0
51735.0,STARLINK-3517,PAYLOAD,2024-02-19 02:05:02,15.08848926,0.0001768,53.2169,84.2182,78.8557,281.2634,0.000321,4.826e-05,0.0,0 STARLINK-3517,1 51735U 22016X   24050.08683620  .00004826  00000-0  32100-3 0  9995,2 51735  53.2169  84.2182 0001768  78.8557 281.2634 15.08848926111512,6917.853,95.437,540.941,538.495,0.0
51735.0,STARLINK-3517,PAYLOAD,2024-02-19 08:26:34,15.08849374,0.0001467,53.2168,83.0259,91.319,268.797,0.0002414,3.557e-05,0.0,0 STARLINK-3517,1 51735U 22016X   24050.35179318  .00003557  00000-0  24140-3 0  9994,2 51735  53.2168  83.0259 0001467  91.3190 268.7970 15.08849374110444,6917.852,95.437,540.732,538.702,0.0
51735.0,STARLINK-3517,PAYLOAD,2024-02-19 19:34:17,15.08844893,0.0001497,53.217,80.9463,77.1737,282.9422,0.00014475,2.017e-05,0.0,0 STARLINK-3517,1 51735U 22016X   24050.81547562  .00002017  00000-0  14475-3 0  9995,2 51735  53.2170  80.9463 0001497  77.1737 282.9422 15.08844893111624,6917.865,95.437,540.766,538.695,0.0
51735.0,STARLINK-3517,PAYLOAD,2024-02-20 11:28:08,15.08838415,0.0001708,53.2174,77.971,87.7281,272.3907,-4.7043e-05,-1.037e-05,0.0,0 STARLINK-3517,1 51735U 22016X   24051.47787986 -.00001037  00000-0 -47043-4 0  9995,2 51735  53.2174  77.9710 0001708  87.7281 272.3907 15.08838415111720,6917.885,95.438,540.932,538.569,0.0
51735.0,STARLINK-3517,PAYLOAD,2024-02-21 08:08:09,15.08847367,0.0001703,53.2173,74.1048,89.9771,270.1417,0.00011295,1.51e-05,0.0,0 STARLINK-3517,1 51735U 22016X   24052.33899588  .00001510  00000-0  11295-3 0  9996,2 51735  53.2173  74.1048 0001703  89.9771 270.1417 15.08847367111857,6917.858,95.437,540.901,538.545,0.0
51735.0,STARLINK-3517,PAYLOAD,2024-02-22 04:48:10,15.08833069,0.0001732,53.217,70.2385,87.1259,272.9931,0.00017585,2.511e-05,0.0,0 STARLINK-3517,1 51735U 22016X   24053.20012531  .00002511  00000-0  17585-3 0  9998,2 51735  53.2170  70.2385 0001732  87.1259 272.9931 15.08833069111987,6917.902,95.438,540.965,538.568,0.0
51735.0,STARLINK-3517,PAYLOAD,2024-02-22 07:58:56,15.0883701,0.0001805,53.2175,69.6469,91.3586,268.7613,0.00016752,2.379e-05,0.0,0 STARLINK-3517,1 51735U 22016X   24053.33260334  .00002379  00000-0  16752-3 0  9995,2 51735  53.2175  69.6469 0001805  91.3586 268.7613 15.08837010110897,6917.89,95.438,541.003,538.506,0.0
51735.0,STARLINK-3517,PAYLOAD,2024-02-22 17:31:15,15.08835822,0.0001766,53.2172,67.8632,92.2359,267.8836,2.3855e-05,9.2e-07,0.0,0 STARLINK-3517,1 51735U 22016X   24053.73004459  .00000092  00000-0  23855-4 0  9996,2 51735  53.2172  67.8632 0001766  92.2359 267.8836 15.08835822110953,6917.893,95.438,540.98,538.536,0.0
51735.0,STARLINK-3517,PAYLOAD,2024-02-23 07:49:43,15.08847923,0.0001517,53.2177,65.1859,96.4271,263.6894,4.1201e-05,3.68e-06,0.0,0 STARLINK-3517,1 51735U 22016X   24054.32619956  .00000368  00000-0  41201-4 0  9997,2 51735  53.2177  65.1859 0001517  96.4271 263.6894 15.08847923112150,6917.856,95.437,540.771,538.672,0.0
51735.0,STARLINK-3517,PAYLOAD,2024-02-23 17:22:02,15.08845635,0.0001467,53.2164,63.4018,94.6679,265.4481,3.7843e-05,3.14e-06,0.0,0 STARLINK-3517,1 51735U 22016X   24054.72363817  .00000314  00000-0  37843-4 0  9991,2 51735  53.2164  63.4018 0001467  94.6679 265.4481 15.08845635111104,6917.863,95.437,540.743,538.713,0.0
51735.0,STARLINK-3517,PAYLOAD,2024-02-24 04:29:45,15.08829215,0.0001636,53.218,61.321,94.7372,265.3807,-7.1421e-05,-1.424e-05,0.0,0 STARLINK-3517,1 51735U 22016X   24055.18732872 -.00001424  00000-0 -71421-4 0  9998,2 51735  53.2180  61.3210 0001636  94.7372 265.3807 15.08829215112289,6917.913,95.438,540.91,538.647,0.0
51735.0,STARLINK-3517,PAYLOAD,2024-02-24 09:15:54,15.08834391,0.0001738,53.2207,60.4267,85.5803,274.5387,1.9064e-05,1.5e-07,0.0,0 STARLINK-3517,1 51735U 22016X   24055.38605226  .00000015  00000-0  19064-4 0  9990,2 51735  53.2207  60.4267 0001738  85.5803 274.5387 15.08834391111208,6917.898,95.438,540.965,538.56,0.0
51735.0,STARLINK-3517,PAYLOAD,2024-02-24 17:12:50,15.08836751,0.0001841,53.221,58.9393,84.7625,275.3577,7.2163e-05,8.6e-06,0.0,0 STARLINK-3517,1 51735U 22016X   24055.71725098  .00000860  00000-0  72163-4 0  9994,2 51735  53.2210  58.9393 0001841  84.7625 275.3577 15.08836751111259,6917.89,95.438,541.029,538.482,0.0
51735.0,STARLINK-3517,PAYLOAD,2024-02-25 05:55:54,15.08847321,0.0001992,53.2205,56.5616,106.8308,253.2903,8.0784e-05,9.98e-06,0.0,0 STARLINK-3517,1 51735U 22016X   24056.24716360  .00000998  00000-0  80784-4 0  9995,2 51735  53.2205  56.5616 0001992 106.8308 253.2903 15.08847321112441,6917.858,95.437,541.101,538.345,0.0
